{
  "schema": "int-telemetry-real-tle-snapshot/v1",
  "source": "celestrak",
  "group": "IRIDIUM-NEXT",
  "format": "celestrak-gp-json",
  "source_url": "https://celestrak.org/NORAD/elements/gp.php?GROUP=IRIDIUM-NEXT&FORMAT=JSON",
  "downloaded_at": "2026-07-07T06:33:54.787Z",
  "generated_at": "2026-07-07T06:33:56.153Z",
  "fingerprint": "75f53801",
  "shell_id": "iridium-next-real-86.4deg-785km",
  "catalog_count": 80,
  "shell_count": 67,
  "selected_count": 66,
  "mean_altitude_km": 784.8,
  "mean_inclination_deg": 86.3965,
  "mean_mean_motion_rev_per_day": 14.34218389,
  "layout": {
    "planes": 6,
    "satellites_per_plane": 11,
    "selection_strategy": "target-shell-raan-clusters-even-slot-sampling",
    "raan_cluster_threshold_deg": 6,
    "target_inclination_deg": 86.4,
    "target_altitude_km": 781,
    "selected_shell_key": "86.5deg-800km",
    "target_shell_distance": 4.16
  },
  "satellites": [
    {
      "satellite_id": "P02-S02",
      "norad_id": 43569,
      "satellite_name": "IRIDIUM 160",
      "cospar_id": "2018-061A",
      "shell_id": "iridium-next-real-86.4deg-785km",
      "plane_id": 1,
      "slot_id": 1,
      "epoch": "2026-07-06T15:58:02.390016",
      "inclination": 86.3944,
      "raan": 48.65100000000001,
      "eccentricity": 0.0002282,
      "argument_of_perigee": 85.6549,
      "mean_anomaly": 274.49070000000006,
      "mean_motion": 14.34218353,
      "bstar": 0.000044583,
      "status": "active",
      "raw_omm": {
        "OBJECT_NAME": "IRIDIUM 160",
        "OBJECT_ID": "2018-061A",
        "EPOCH": "2026-07-06T15:58:02.390016",
        "MEAN_MOTION": 14.34218353,
        "ECCENTRICITY": 0.0002282,
        "INCLINATION": 86.3944,
        "RA_OF_ASC_NODE": 48.651,
        "ARG_OF_PERICENTER": 85.6549,
        "MEAN_ANOMALY": 274.4907,
        "EPHEMERIS_TYPE": 0,
        "CLASSIFICATION_TYPE": "U",
        "NORAD_CAT_ID": 43569,
        "ELEMENT_SET_NO": 999,
        "REV_AT_EPOCH": 41616,
        "BSTAR": 0.000044583,
        "MEAN_MOTION_DOT": 0.00000145,
        "MEAN_MOTION_DDOT": 0
      },
      "source": "celestrak",
      "source_url": "https://celestrak.org/NORAD/elements/gp.php?GROUP=IRIDIUM-NEXT&FORMAT=JSON",
      "catalog_fingerprint": "75f53801"
    },
    {
      "satellite_id": "P02-S03",
      "norad_id": 43571,
      "satellite_name": "IRIDIUM 158",
      "cospar_id": "2018-061C",
      "shell_id": "iridium-next-real-86.4deg-785km",
      "plane_id": 1,
      "slot_id": 2,
      "epoch": "2026-07-06T15:48:54.303840",
      "inclination": 86.3943,
      "raan": 48.613699999999994,
      "eccentricity": 0.0002132,
      "argument_of_perigee": 85.11469999999997,
      "mean_anomaly": 275.02919999999995,
      "mean_motion": 14.34217564,
      "bstar": 0.000059249,
      "status": "active",
      "raw_omm": {
        "OBJECT_NAME": "IRIDIUM 158",
        "OBJECT_ID": "2018-061C",
        "EPOCH": "2026-07-06T15:48:54.303840",
        "MEAN_MOTION": 14.34217564,
        "ECCENTRICITY": 0.0002132,
        "INCLINATION": 86.3943,
        "RA_OF_ASC_NODE": 48.6137,
        "ARG_OF_PERICENTER": 85.1147,
        "MEAN_ANOMALY": 275.0292,
        "EPHEMERIS_TYPE": 0,
        "CLASSIFICATION_TYPE": "U",
        "NORAD_CAT_ID": 43571,
        "ELEMENT_SET_NO": 999,
        "REV_AT_EPOCH": 41615,
        "BSTAR": 0.000059249,
        "MEAN_MOTION_DOT": 0.00000186,
        "MEAN_MOTION_DDOT": 0
      },
      "source": "celestrak",
      "source_url": "https://celestrak.org/NORAD/elements/gp.php?GROUP=IRIDIUM-NEXT&FORMAT=JSON",
      "catalog_fingerprint": "75f53801"
    },
    {
      "satellite_id": "P02-S04",
      "norad_id": 43576,
      "satellite_name": "IRIDIUM 156",
      "cospar_id": "2018-061H",
      "shell_id": "iridium-next-real-86.4deg-785km",
      "plane_id": 1,
      "slot_id": 3,
      "epoch": "2026-07-06T15:39:46.291104",
      "inclination": 86.3943,
      "raan": 48.587699999999984,
      "eccentricity": 0.0002032,
      "argument_of_perigee": 90.12439999999998,
      "mean_anomaly": 270.0185,
      "mean_motion": 14.34218513,
      "bstar": 0.000060726,
      "status": "active",
      "raw_omm": {
        "OBJECT_NAME": "IRIDIUM 156",
        "OBJECT_ID": "2018-061H",
        "EPOCH": "2026-07-06T15:39:46.291104",
        "MEAN_MOTION": 14.34218513,
        "ECCENTRICITY": 0.0002032,
        "INCLINATION": 86.3943,
        "RA_OF_ASC_NODE": 48.5877,
        "ARG_OF_PERICENTER": 90.1244,
        "MEAN_ANOMALY": 270.0185,
        "EPHEMERIS_TYPE": 0,
        "CLASSIFICATION_TYPE": "U",
        "NORAD_CAT_ID": 43576,
        "ELEMENT_SET_NO": 999,
        "REV_AT_EPOCH": 41616,
        "BSTAR": 0.000060726,
        "MEAN_MOTION_DOT": 0.0000019,
        "MEAN_MOTION_DDOT": 0
      },
      "source": "celestrak",
      "source_url": "https://celestrak.org/NORAD/elements/gp.php?GROUP=IRIDIUM-NEXT&FORMAT=JSON",
      "catalog_fingerprint": "75f53801"
    },
    {
      "satellite_id": "P02-S05",
      "norad_id": 43573,
      "satellite_name": "IRIDIUM 155",
      "cospar_id": "2018-061E",
      "shell_id": "iridium-next-real-86.4deg-785km",
      "plane_id": 1,
      "slot_id": 4,
      "epoch": "2026-07-06T15:30:38.153952",
      "inclination": 86.3941,
      "raan": 48.53390000000002,
      "eccentricity": 0.0002138,
      "argument_of_perigee": 87.7088,
      "mean_anomaly": 272.4353,
      "mean_motion": 14.34217313,
      "bstar": 0.000080424,
      "status": "active",
      "raw_omm": {
        "OBJECT_NAME": "IRIDIUM 155",
        "OBJECT_ID": "2018-061E",
        "EPOCH": "2026-07-06T15:30:38.153952",
        "MEAN_MOTION": 14.34217313,
        "ECCENTRICITY": 0.0002138,
        "INCLINATION": 86.3941,
        "RA_OF_ASC_NODE": 48.5339,
        "ARG_OF_PERICENTER": 87.7088,
        "MEAN_ANOMALY": 272.4353,
        "EPHEMERIS_TYPE": 0,
        "CLASSIFICATION_TYPE": "U",
        "NORAD_CAT_ID": 43573,
        "ELEMENT_SET_NO": 999,
        "REV_AT_EPOCH": 41614,
        "BSTAR": 0.000080424,
        "MEAN_MOTION_DOT": 0.00000245,
        "MEAN_MOTION_DDOT": 0
      },
      "source": "celestrak",
      "source_url": "https://celestrak.org/NORAD/elements/gp.php?GROUP=IRIDIUM-NEXT&FORMAT=JSON",
      "catalog_fingerprint": "75f53801"
    },
    {
      "satellite_id": "P02-S06",
      "norad_id": 41924,
      "satellite_name": "IRIDIUM 108",
      "cospar_id": "2017-003H",
      "shell_id": "iridium-next-real-86.4deg-785km",
      "plane_id": 1,
      "slot_id": 5,
      "epoch": "2026-07-06T15:21:30.194784",
      "inclination": 86.3941,
      "raan": 48.623699999999985,
      "eccentricity": 0.000226,
      "argument_of_perigee": 85.0084,
      "mean_anomaly": 275.13689999999997,
      "mean_motion": 14.34218216,
      "bstar": 0.000040687,
      "status": "active",
      "raw_omm": {
        "OBJECT_NAME": "IRIDIUM 108",
        "OBJECT_ID": "2017-003H",
        "EPOCH": "2026-07-06T15:21:30.194784",
        "MEAN_MOTION": 14.34218216,
        "ECCENTRICITY": 0.000226,
        "INCLINATION": 86.3941,
        "RA_OF_ASC_NODE": 48.6237,
        "ARG_OF_PERICENTER": 85.0084,
        "MEAN_ANOMALY": 275.1369,
        "EPHEMERIS_TYPE": 0,
        "CLASSIFICATION_TYPE": "U",
        "NORAD_CAT_ID": 41924,
        "ELEMENT_SET_NO": 999,
        "REV_AT_EPOCH": 49789,
        "BSTAR": 0.000040687,
        "MEAN_MOTION_DOT": 0.00000134,
        "MEAN_MOTION_DDOT": 0
      },
      "source": "celestrak",
      "source_url": "https://celestrak.org/NORAD/elements/gp.php?GROUP=IRIDIUM-NEXT&FORMAT=JSON",
      "catalog_fingerprint": "75f53801"
    },
    {
      "satellite_id": "P02-S07",
      "norad_id": 43577,
      "satellite_name": "IRIDIUM 164",
      "cospar_id": "2018-061J",
      "shell_id": "iridium-next-real-86.4deg-785km",
      "plane_id": 1,
      "slot_id": 6,
      "epoch": "2026-07-06T16:52:50.379168",
      "inclination": 86.3944,
      "raan": 48.60719999999998,
      "eccentricity": 0.0002288,
      "argument_of_perigee": 89.58550000000002,
      "mean_anomaly": 270.5603,
      "mean_motion": 14.34218135,
      "bstar": 0.0000066864,
      "status": "active",
      "raw_omm": {
        "OBJECT_NAME": "IRIDIUM 164",
        "OBJECT_ID": "2018-061J",
        "EPOCH": "2026-07-06T16:52:50.379168",
        "MEAN_MOTION": 14.34218135,
        "ECCENTRICITY": 0.0002288,
        "INCLINATION": 86.3944,
        "RA_OF_ASC_NODE": 48.6072,
        "ARG_OF_PERICENTER": 89.5855,
        "MEAN_ANOMALY": 270.5603,
        "EPHEMERIS_TYPE": 0,
        "CLASSIFICATION_TYPE": "U",
        "NORAD_CAT_ID": 43577,
        "ELEMENT_SET_NO": 999,
        "REV_AT_EPOCH": 41621,
        "BSTAR": 0.0000066864,
        "MEAN_MOTION_DOT": 3.9e-7,
        "MEAN_MOTION_DDOT": 0
      },
      "source": "celestrak",
      "source_url": "https://celestrak.org/NORAD/elements/gp.php?GROUP=IRIDIUM-NEXT&FORMAT=JSON",
      "catalog_fingerprint": "75f53801"
    }
  ]
}